    PK21C020  2021 02 24.5914  4.883785  0.488359   78.7215   66.4554   21.9385  20250611  12.0  4.0  P/2021 C2 (PANSTARRS)                                    MPEC 2021-U31
    CK21C030  2021 02 11.1254  2.274063  0.962375  356.9766  181.8546  122.2064  20250611  14.0  4.0  C/2021 C3 (Catalina)                                     MPEC 2024-M41
    CK21C040  2021 01 16.1956  4.493558  0.998843  320.0289  194.2301  132.8320  20250611   9.0  4.0  C/2021 C4 (ATLAS)                                        MPEC 2022-M88
    CK21C050  2023 02 10.9797  3.240429  0.998103  270.8906  323.6735   50.8026  20250611   9.0  4.0  C/2021 C5 (PANSTARRS)                                    MPEC 2024-N80
    CK21C060  2021 11 11.9194  3.284263  0.998783  203.8562  332.3267  164.6090  20250611  12.0  4.0  C/2021 C6 (Lemmon)                                       MPEC 2022-YB4
    CK21D010  2021 02 27.3614  0.908002  0.991100   72.4554  311.1650   31.3574  20250611  13.0  4.0  C/2021 D1 (SWAN)                                         MPEC 2022-F14
    CK21D020  2022 02  3.6600  2.949422  1.001435  125.0659  305.6293   83.7725  20250611   9.0  4.0  C/2021 D2 (ZTF)                                          MPEC 2023-J29
    AK21E020  2020 12  8.9801  2.282968  0.988621  342.2228  190.7528  167.4935  20250611  15.0  2.0  A/2021 E2                                                MPEC 2022-UY9
    CK21E030  2022 06 11.1663  1.777484  0.999874  228.8018  104.4839  112.5253  20250611   8.5  4.0  C/2021 E3 (ZTF)                                          MPEC 2024-GJ3
    AK21E040  2022 04 24.8330  4.679703  0.990725   48.2816  171.1421  116.3806  20250611  13.5  2.0  A/2021 E4                                                MPEC 2024-N80
    CK21F010  2022 04  6.7370  0.999195  0.995975  146.9436  203.5458  107.2921  20250611  13.5  4.0  C/2021 F1 (Lemmon-PANSTARRS)                             MPEC 2022-QD9
    CK21G010  2021 07 20.3842  3.427706  0.951786  107.4344  270.6978  131.5470  20250611  14.0  4.0  C/2021 G1 (Leonard)                                      MPEC 2021-J72
    CK21G020  2024 09  9.1378  4.982297  1.000714  343.2670  221.0948   48.4672  20250611   5.5  4.0  C/2021 G2 (ATLAS)                                        MPC184409
    CK21G030  2021 10 17.8530  5.182439  0.999410   10.5969  147.3470  102.8725  20250611  10.5  4.0  C/2021 G3 (PANSTARRS)                                    MPEC 2022-X67
    PK21H00S  2021 08  4.8149  0.799100  0.809440   46.1192  262.3585   12.1545  20250611  22.0  4.0  P/2021 HS (PANSTARRS)                                    MPEC 2021-Y10
    CK21J010  2021 02 19.4234  1.734067  0.933816  147.2009   88.4319   92.7078  20250611  15.5  4.0  C/2021 J1 (Maury-Attard)                                 MPEC 2022-C56
    CK21J020  2021 09 20.8138  4.701478  0.957993  171.8855   23.3098  156.2116  20250611  12.0  4.0  C/2021 J2 (PANSTARRS)                                    MPEC 2023-XP6
    PK21J030  2019 06 30.3968  4.895442  0.449379  125.6362  111.0049   14.5153  20250611   7.0  4.0  P/2021 J3 (ATLAS)                                        MPEC 2024-F34
    CK21K010  2021 05  2.4208  2.502085  0.801517  184.2250  140.9237   16.2713  20250611  11.0  4.0  C/2021 K1 (ATLAS)                                        MPEC 2022-O08
    CK21K020  2021 09  9.2611  5.463906  1.000471  343.2797  282.3371  100.8711  20250611   8.0  4.0  C/2021 K2 (MASTER)                                       MPEC 2022-O01
    CK21K030  2022 02  3.6585  5.227790  1.004210  182.0150  114.6074  134.7805  20250611  10.0  4.0  C/2021 K3 (Catalina)                                     MPEC 2022-L66
    PK21L020  2021 07 22.8504  1.939546  0.520805   51.4336  266.6533   21.0645  20250611  17.0  4.0  P/2021 L2 (Leonard)                                      MPEC 2021-W31
    CK21L030  2022 02 14.9887  8.460217  1.004557   91.6505  345.0165   78.5390  20250611   6.0  4.0  C/2021 L3 (Borisov)                                      MPEC 2024-H50
    PK21N010  2026 07 27.8492  0.966252  0.675728   21.2262  301.1355   11.4856  20250611  19.0  4.0  P/2021 N1 (ZTF)                                          MPEC 2022-TA0
    PK21N020  2021 11 14.1799  3.805726  0.452158  177.6281  221.7428   13.0601  20250611   9.5  4.0  P/2021 N2 (Fuls)                                         MPEC 2024-GJ3
    CK21N030  2020 08 16.9486  5.712242  0.959368  304.6026  337.5254   26.7632  20250611   8.5  4.0  C/2021 N3 (PANSTARRS)                                    MPEC 2022-YB4
    CK21O010  2021 08 14.7518  0.782767  0.999838   74.4259   41.5437   27.5713  20250611  10.5  4.0  C/2021 O1 (Nishimura)                                    MPEC 2022-A21
    CK21O030  2022 04 21.2807  0.285126  1.000051  300.0173  188.7928   56.8268  20250611  10.5  4.0  C/2021 O3 (PANSTARRS)                                    MPEC 2022-L66
    CK21P010  2022 06  2.5764  4.379597  0.998384   40.5252  359.7110   51.6207  20250611  11.0  4.0  C/2021 P1 (PANSTARRS)                                    MPEC 2024-F34
    CK21P020  2023 01 23.0776  5.068041  0.999612   76.7163   32.0944  150.0553  20250611   9.0  4.0  C/2021 P2 (PANSTARRS)                                    MPC184409
    PK21P030  2021 05 28.3623  2.919179  0.338380  334.0100  358.2482   27.1603  20250611  14.0  4.0  P/2021 P3 (PANSTARRS)                                    MPEC 2024-GJ3
    CK21P040  2022 07 30.4224  1.078638  0.996357  175.8074  348.0094   56.3732  20250611   9.5  4.0  C/2021 P4 (ATLAS)                                        MPEC 2023-A50
    PK21P20E  2028 09  4.5298  1.236298  0.669956  210.4341   99.6249   20.0000  20250611  17.0  4.0  P/2021 PE20 (ATLAS)                                      MPEC 2023-E68
    CK21Q030  2022 01 26.0824  5.208731  0.930640  114.1451  307.9094   77.7167  20250611   8.0  4.0  C/2021 Q3 (ATLAS)                                        MPEC 2023-FK0
    CK21Q040  2023 06 11.1136  7.565136  1.001739  147.0570  183.3292   71.5312  20250611   6.0  4.0  C/2021 Q4 (Fuls)                                         MPEC 2025-A40
    PK21Q050  2027 08 16.9885  1.234017  0.624569  180.9569  239.7555   10.7383  20250611  15.0  4.0  P/2021 Q5 (ATLAS)                                        MPEC 2022-C56
    CK21Q060  2024 03 25.2222  8.707742  1.002792  141.0644  133.5742  161.8260  20250611   6.0  4.0  C/2021 Q6 (PANSTARRS)                                    MPEC 2024-UA9
    CK21Q45M  2022 08 13.6818  2.778053  0.993204   72.9199  354.5964   22.7992  20250611  11.0  4.0  C/2021 QM45 (PANSTARRS)                                  MPEC 2023-FK0
    PK21R010  2021 12  8.8220  4.884495  0.408219  220.0448  143.1094    5.5326  20250611  11.0  4.0  P/2021 R1 (PANSTARRS)                                    MPEC 2022-X67
    CK21R020  2021 12 28.4523  7.316506  0.999307   32.5517   16.3369  134.4822  20250611   7.5  4.0  C/2021 R2 (PANSTARRS)                                    MPEC 2022-X67
    PK21R030  2028 09 17.6938  2.519602  0.331540    2.5899  304.1942   19.9415  20250611  16.0  4.0  P/2021 R3 (PANSTARRS)                                    MPEC 2021-W31
    PK21R040  2021 10 13.4336  2.333870  0.585285   56.7763  321.2820   21.0120  20250611  16.0  4.0  P/2021 R4 (Wierzchos)                                    MPEC 2021-W31
    PK21R050  2022 01 12.4067  3.330018  0.305954  167.6059  219.9619    7.8538  20250611  12.0  4.0  P/2021 R5 (Rankin)                                       MPEC 2024-JU4
    PK21R060  2021 10 31.9383  2.559353  0.593043  220.8798  176.1616   34.8919  20250611  14.5  4.0  P/2021 R6 (Groeller)                                     MPEC 2021-W31
    CK21R070  2021 04 17.3131  5.654617  0.994330  140.3967  170.2008  158.8749  20250611  10.5  4.0  C/2021 R7 (PANSTARRS)                                    MPEC 2022-X67
    PK21R080  2027 01  5.7864  2.136653  0.292554  190.8200  167.0659    2.2027  20250611  18.5  4.0  P/2021 R8 (Sheppard)                                     MPEC 2021-Y10
    CK21S010  2022 03  1.9987  6.124993  1.002896  148.3071  299.8564   52.0383  20250611   7.0  4.0  C/2021 S1 (ATLAS)                                        MPEC 2023-J29
    CK21S030  2024 02 14.6730  1.319784  1.000017    6.8371  215.6082   58.5391  20250611   5.5  4.0  C/2021 S3 (PANSTARRS)                                    MPC184409
    CK21S040  2024 01  3.8199  6.691717  0.957210   73.0407    5.4528   17.4795  20250611   6.5  4.0  C/2021 S4 (Tsuchinshan)                                  MPC184409
    CK21T010  2021 10 14.8514  3.060395  0.998914   51.5821   56.8478  140.3526  20250611  12.5  4.0  C/2021 T1 (Lemmon)                                       MPEC 2022-OB6
    CK21T020  2022 06  8.3221  1.244219  1.000537  263.5297  223.2086  117.5131  20250611  12.0  4.0  C/2021 T2 (Fuls)                                         MPEC 2023-A50
    CK21T040  2023 07 31.5167  1.481547  0.999705  329.7721  257.8896  160.7784  20250611   7.5  4.0  C/2021 T4 (Lemmon)                                       MPC184409
    PK21T81R  2022 04  3.6029  1.464853  0.833031  272.0074  220.1767   36.8146  20250611  15.6  4.0  P/2021 TR81 (Lemmon)                                     MPC184409
    PK21U010  2021 09 30.7683  2.453814  0.712662  145.2358  246.7943   30.5513  20250611  14.5  4.0  P/2021 U1 (Wierzchos)                                    MPEC 2022-ED3
    PK21U030  2021 10 24.8633  1.891097  0.549415  335.3246   75.0940   69.9617  20250611  15.5  4.0  P/2021 U3 (Attard-Maury)                                 MPEC 2022-L66
    CK21U040  2021 12 22.5474  1.787355  0.960709  237.3241  241.8057  152.8829  20250611  17.0  4.0  C/2021 U4 (Leonard)                                      MPEC 2021-W31
    CK21U050  2022 01 26.9796  2.359139  0.989388  321.4599  182.6786   39.0401  20250611  13.0  4.0  C/2021 U5 (Catalina)                                     MPEC 2022-WQ9
